{
  "norad_id": 60926,
  "name": "STARLINK-11244 [DTC]",
  "history": [
    {
      "epoch": "2026-03-28T17:47:42.886176Z",
      "apogee_km": 360.48152951642896,
      "perigee_km": 359.03072636812067,
      "latitude_deg": 5.2549142017183374e-05,
      "longitude_deg": 154.3265860929861,
      "height_km": 360.41576335184146,
      "semi_major_axis_km": 6737.893127942274,
      "eccentricity": 0.00010766,
      "inclination_deg": 53.1597,
      "raan_deg": 247.4128,
      "arg_perigee_deg": 69.4945,
      "mean_anomaly_deg": 290.6189,
      "mean_motion_rev_day": 15.69699734
    }
  ]
}